{
  "norad_id": 67275,
  "name": "2025-313AD",
  "history": [
    {
      "epoch": "2026-05-03T17:19:22.237824Z",
      "apogee_km": 509.72798383119425,
      "perigee_km": 489.5801826319748,
      "latitude_deg": -6.840244303256905e-05,
      "longitude_deg": 77.5386505187952,
      "height_km": 512.0878715394828,
      "semi_major_axis_km": 6877.791083231584,
      "eccentricity": 0.0014647,
      "inclination_deg": 97.3919,
      "raan_deg": 199.0027,
      "arg_perigee_deg": 158.1216,
      "mean_anomaly_deg": 202.0648,
      "mean_motion_rev_day": 15.22051307
    },
    {
      "epoch": "2026-05-04T18:34:04.984320Z",
      "apogee_km": 509.7342625684014,
      "perigee_km": 489.49029534072724,
      "latitude_deg": 6.357261947301297e-05,
      "longitude_deg": 58.85773566435174,
      "height_km": 511.8629098173707,
      "semi_major_axis_km": 6877.749278954564,
      "eccentricity": 0.0014717,
      "inclination_deg": 97.3917,
      "raan_deg": 200.0367,
      "arg_perigee_deg": 154.9116,
      "mean_anomaly_deg": 205.2839,
      "mean_motion_rev_day": 15.22065184
    },
    {
      "epoch": "2026-05-05T10:20:46.207104Z",
      "apogee_km": 509.7273170599201,
      "perigee_km": 489.41744126325557,
      "latitude_deg": 4.829268740982131e-05,
      "longitude_deg": -177.8156106935685,
      "height_km": 511.67480451046447,
      "semi_major_axis_km": 6877.709379161587,
      "eccentricity": 0.0014765,
      "inclination_deg": 97.3917,
      "raan_deg": 200.6831,
      "arg_perigee_deg": 152.6541,
      "mean_anomaly_deg": 207.5476,
      "mean_motion_rev_day": 15.22078429
    },
    {
      "epoch": "2026-05-06T19:28:47.621856Z",
      "apogee_km": 509.7553019963816,
      "perigee_km": 489.29013773394945,
      "latitude_deg": 6.35559963874092e-05,
      "longitude_deg": 45.17503346022099,
      "height_km": 511.2777108150084,
      "semi_major_axis_km": 6877.659719865165,
      "eccentricity": 0.0014878,
      "inclination_deg": 97.3915,
      "raan_deg": 202.0404,
      "arg_perigee_deg": 147.9765,
      "mean_anomaly_deg": 212.2379,
      "mean_motion_rev_day": 15.22094914
    },
    {
      "epoch": "2026-05-07T20:43:27.874848Z",
      "apogee_km": 509.7733736326909,
      "perigee_km": 489.21201190319243,
      "latitude_deg": 9.504832003596609e-06,
      "longitude_deg": 26.50456054994683,
      "height_km": 510.94439397510735,
      "semi_major_axis_km": 6877.629692767941,
      "eccentricity": 0.0014948,
      "inclination_deg": 97.3914,
      "raan_deg": 203.0744,
      "arg_perigee_deg": 144.5445,
      "mean_anomaly_deg": 215.6788,
      "mean_motion_rev_day": 15.22104882
    },
    {
      "epoch": "2026-05-08T10:55:27.715296Z",
      "apogee_km": 509.78971194628775,
      "perigee_km": 489.15825451878754,
      "latitude_deg": -2.751738628332092e-05,
      "longitude_deg": 173.50385691379842,
      "height_km": 510.7540512841732,
      "semi_major_axis_km": 6877.610983232537,
      "eccentricity": 0.0014999,
      "inclination_deg": 97.3914,
      "raan_deg": 203.6562,
      "arg_perigee_deg": 142.6811,
      "mean_anomaly_deg": 217.547,
      "mean_motion_rev_day": 15.22111093
    }
  ]
}